#dP2018 10 16  0  0  0.00000000      96 __u+U IGS08 FIT  IAC
## 2023 172800.00000000   900.00000000 58407 0.0000000000000
+   92   C01C02C03C04C05C06C07C08C09C10C11C12C13C14E01E02E03
+        E04E05E07E08E09E11E12E14E18E19E21E24E25E26E27E30E31
+        G01G02G03G05G06G07G08G09G10G11G12G13G14G15G16G17G18
+        G19G20G21G22G23G24G25G26G27G28G29G30G31G32J01J02J03
+        J07R01R02R03R04R05R07R08R09R10R11R13R14R15R16R17R18
+        R19R20R21R22R23R24R26  0  0  0  0  0  0  0  0  0  0
++        12 12 12 12 12  8  8  8  8  8  7  7  7  7  7  7  7
++         7  7  7  7  7  7  7  7  7  7  7  7  7  7  7  7  6
++         3  3  3  0  3  3  3  3  3  3  3  3  3  3  3  3  3
++         3  3  3  3  3  3  3  3  3  3  3  3  3  3  9 11 11
++         0  5  5  5  5  5  5  5  5  5  5  5  5  5  5  5  5
++         5  5  5  5  5  5  8  0  0  0  0  0  0  0  0  0  0
%c M  cc GPS ccc cccc cccc cccc cccc ccccc ccccc ccccc ccccc
%c cc cc ccc ccc cccc cccc cccc cccc ccccc ccccc ccccc ccccc
%f  1.2500000  1.025000000  0.00000000000  0.000000000000000
%f  0.0000000  0.000000000  0.00000000000  0.000000000000000
%i    0    0    0    0      0      0      0      0         0
%i    0    0    0    0      0      0      0      0         0
/* INFORMATION & ANALYSIS CENTER (IAC)            FINAL DATA
/* S/V CLOCKS ARE ALIGNED TO GPS & GLONASS TIME RESPECTIVELY
/* USING THE BROADCAST EPHEMERIS                            
/* PCV:IGS14_2022 OL/AL:FES2004  NONE     YN ORB:CoN CLK:CoN
*  2018 10 16  6 30  0.00000000
PC01 -32338.373018  27035.936087  -1021.528534   -235.904212
PC02   4445.586977  41909.152017    816.146407    -29.098060
PC03 -14723.849412  39541.946968   -385.643793   -253.734627
PC04 -39650.797125  14306.129628   -483.706003    -74.252158
PC05  21889.196616  36033.618376   1089.049922    224.612197
PC06  -7983.757071  31405.985250  27431.533726    385.065091
PC07 -19281.481343  22171.866771 -30253.859684    -96.192218
PC08 -22625.243574  35231.578714   3536.095626     -1.055541
PC09   4254.914786  39662.991436  14330.290016    202.327181
PC10  -3280.629445  25441.343586 -33327.150696   -157.598169
PC11 -15532.910256   3570.818179 -22838.921552      2.565527
PC12 -10826.502746 -17686.265368 -18665.452741    153.458766
PC13 -10433.506874  36392.311761  18304.232139   -328.137685
PC14 -23878.002355  -4943.948568  13577.111067    613.075198
PE01  -8853.685032 -15126.195534  23863.545427   -457.097555
PE02   8896.062518  15108.220187 -23840.985997     31.368341
PE03  12352.497868  26260.014134   5791.938623    -88.768110
PE04 -21317.119009 -16378.985178  12391.642960   -138.672252
PE05  -3896.374212  20813.985342  20680.621517    176.156677
PE07  17806.805036  -3214.079535 -23419.760696    -57.369688
PE08  21404.636751  16184.072334 -12478.765169   6482.084670
PE09 -17684.522256   3260.165590  23517.642696   6646.450801
PE11 -19610.556652  14170.846727 -17063.866052   5696.562799
PE12 -14810.494231  -7195.175810 -24597.204557   5282.678356
PE14 -12209.186881  22753.517954 -18290.674010   6504.005504
PE18   2585.758541 -24192.938074   6401.337017   5829.186687
PE19 -11065.224781 -26371.794078  -7628.253098    -11.382039
PE21  14173.824604 -14900.063232  21292.396798   -499.718573
PE24 -28167.413960   6076.260951  -6749.730545   6439.200633
PE25 -14227.413759  14881.051598 -21258.348301   2011.929243
PE26  12954.530202 -26623.437264   -189.730146   5359.482219
PE27  28369.718294  -5827.741072   6112.347734    610.150370
PE30  26234.210432   6466.629293 -12090.247141   5429.162602
PE31 -25922.606224  -6670.580689  12665.498747   1008.622080
PG01  10351.310139 -20637.458497 -13025.344767   -101.094239
PG02 -21066.988946  14478.874419  -6188.106258    -31.371885
PG03    841.391569 -15597.687353 -21525.032821    149.464283
PG05      0.000000      0.000000      0.000000 999999.999999
PG06 -19477.526128    733.371639 -18021.963275    348.905934
PG07  -4593.670891 -15605.496560  21152.512143    105.905563
PG08   7551.882677 -19313.739928  16548.241233   -118.774132
PG09  -6958.957693 -25529.146945   2233.208395    500.088483
PG10  23888.339260  11127.015488   4053.953606    174.168702
PG11   8256.041395 -25180.085993  -3596.244835   -709.433654
PG12  -6304.106054  13366.970107 -22257.822240    299.422775
PG13 -12732.317773  12178.305356  19756.365047    -86.953893
PG14  15265.861521   4795.627827 -20926.018983    -96.674646
PG15  -3875.848101  22352.862791  13246.693745   -342.923610
PG16  21738.268163  -1514.559611  15315.405446      3.971075
PG17 -13469.243554 -15143.243909 -16834.439901    -43.557620
PG18  16545.401902 -20263.975608  -4552.782763     68.750949
PG19 -15026.797370  -4140.028440 -21782.002900   -393.093063
PG20  18427.073480  14017.047528  12992.691661    517.352015
PG21   8714.472336  13577.369739  21905.434878   -320.503673
PG22   9463.146167 -13481.986749 -20599.249439   -548.091654
PG23   -899.113837 -25535.839374  -6101.458292   -208.589354
PG24 -13212.212090  21247.227423  -8560.597275    -56.799174
PG25   8139.407580  16711.716756 -19242.930483   -662.450059
PG26  25632.892995   3479.402062   6355.779120     10.760742
PG27  12896.730410  -8830.288282  21347.778095     -5.774426
PG28 -21431.899268 -14409.229785   6684.445957    749.959083
PG29   4420.464582  26144.903684   1475.989491    356.019665
PG30 -14521.029612  -7834.034714  20863.113873      9.498832
PG31  21058.448272  -2658.691222 -16201.152102     86.418356
PG32  15208.516934  12966.083068 -17500.505622   -391.309780
PJ01 -24406.424015  24461.529859  29199.379138   -311.031492
PJ02 -35486.930810  19697.698834  -6641.764706      0.228312
PJ03 -19452.086873  27009.076222 -21326.382368      0.300794
PJ07 -25396.440179  33651.785460     47.555949 999999.999999
PR01  19706.555004  13030.061168  -9603.694032     33.533822
PR02  11862.992707  -2986.502539 -22357.656459    334.728200
PR03  -2471.180914 -15961.482005 -19693.635869    146.093042
PR04 -15662.801482 -19460.415128  -5109.983262    280.098250
PR05 -19336.722688 -11865.442639  11645.321592     13.211346
PR07   2865.260845  16244.088315  19499.778524    -49.421534
PR08  15228.835751  19614.860891   5891.631601     20.910493
PR09 -22610.733073   9282.547135  -7401.372726     33.694887
PR10  -9893.071065  12013.564148 -20250.192412     33.600545
PR11   9846.099587   8402.094073 -21948.801071    -44.049259
PR13  22735.080691  -9321.507086   6820.145166    -15.735559
PR14   9730.217988 -12280.343613  20142.744456     32.028931
PR15  -4956.793856  -9752.767532  23052.068154    -17.760347
PR16 -22594.033633    268.928843  11714.865092    104.057733
PR17   7367.308189 -24434.372005    777.361140    172.617475
PR18  -1420.914966 -20322.425798 -15306.757096     26.151509
PR19  -9311.717271  -5218.440610 -23169.736730    -60.678117
PR20 -12460.101511  14485.097306 -16916.122291   -355.768037
PR21  -7139.297676  24468.179366   -306.272423     -9.139698
PR22   2504.454042  18928.888617  16979.990781    -64.970424
PR23  10797.283847    302.386531  23098.844181    184.667423
PR24  12091.490554 -15754.441171  15978.530231   -172.612469
PR26 -12283.522587  13324.350750 -17925.875826     24.519454
EOF
